GLOBALSTAR M069         
1 31573U 07020C   26185.78071941 -.00000069  00000+0  21918-3 0  9996
2 31573  51.9996 202.3296 0001920 187.0422 343.6840 12.23471961880954
GLOBALSTAR M072         
1 31574U 07020D   26185.65936625 -.00000067  00000+0  23287-3 0  9991
2 31574  51.9942  53.7304 0001592  13.6714  19.8118 11.91658599877063
GLOBALSTAR M066         
1 32265U 07048C   26185.53584878 -.00000097  00000+0 -18207-4 0  9996
2 32265  51.9612   8.1104 0005713  79.8467 314.3397 12.30387894862365
GLOBALSTAR M079         
1 37188U 10054A   26185.94556171 -.00000089  00000+0  80561-4 0  9998
2 37188  52.0046  54.6115 0001047  60.4545 328.3746 12.62266441724790
GLOBALSTAR M074         
1 37189U 10054B   26185.88932728 -.00000092  00000+0  66079-4 0  9990
2 37189  52.0027  54.0450 0000816  77.0506 296.2515 12.62261910725390
GLOBALSTAR M076         
1 37190U 10054C   26185.68296389 -.00000090  00000+0  76611-4 0  9997
2 37190  52.0038  54.8780 0001037  73.0570 321.9452 12.62262053725082
GLOBALSTAR M077         
1 37191U 10054D   26185.35628940 -.00000069  00000+0  16519-3 0  9990
2 37191  51.9935 135.7168 0002441 203.9150 325.8394 11.67547948723140
GLOBALSTAR M075         
1 37192U 10054E   26185.77139922 -.00000072  00000+0  17752-3 0  9998
2 37192  51.9942  96.6525 0000568  48.6624 328.6879 12.62267648724163
GLOBALSTAR M073         
1 37193U 10054F   26185.77085113 -.00000098  00000+0  33233-4 0  9992
2 37193  52.0073  10.7684 0001112  80.9165 292.3319 12.62266821726158
GLOBALSTAR M083         
1 37739U 11033A   26185.62527810 -.00000082  00000+0  12169-3 0  9992
2 37739  51.9877 319.4166 0000925  93.4041 279.3564 12.62263814695152
GLOBALSTAR M088         
1 37740U 11033B   26185.87151178 -.00000097  00000+0  36829-4 0  9997
2 37740  52.0191 225.1385 0000281 152.9321  17.8646 12.62269264690727
GLOBALSTAR M091         
1 37741U 11033C   26185.72629488 -.00000116  00000+0 -68880-4 0  9991
2 37741  51.9966 188.5184 0000151 355.1760 176.1624 12.62264129691490
GLOBALSTAR M085         
1 37742U 11033D   26185.92152884 -.00000093  00000+0  58065-4 0  9992
2 37742  52.0109 139.2306 0000534  17.4911  21.4946 12.62264211692034
GLOBALSTAR M081         
1 37743U 11033E   26185.86399882 -.00000096  00000+0  41551-4 0  9992
2 37743  51.9940 141.8218 0000431  41.1943 336.0095 12.62265310692178
GLOBALSTAR M089         
1 37744U 11033F   26185.74718416 -.00000079  00000+0  13763-3 0  9992
2 37744  51.9929  96.3334 0000588  80.6750 306.4607 12.62267514693007
GLOBALSTAR M084         
1 38040U 11080A   26185.67833848 -.00000087  00000+0  93909-4 0  9993
2 38040  52.0027 324.0335 0001037 114.2678 259.7855 12.62267759670970
GLOBALSTAR M080         
1 38041U 11080B   26185.64965721 -.00000095  00000+0  51039-4 0  9994
2 38041  52.0081 325.8451 0000410  82.4452 291.2697 12.62265472671098
GLOBALSTAR M082         
1 38042U 11080C   26185.69818544 -.00000080  00000+0  13367-3 0  9995
2 38042  52.0081 281.2010 0000331 113.3798  50.7180 12.62263928671802
GLOBALSTAR M092         
1 38043U 11080D   26185.90576487 -.00000080  00000+0  13060-3 0  9997
2 38043  52.0099  10.9662 0000848  88.9039  58.1566 12.62267509670280
GLOBALSTAR M090         
1 38044U 11080E   26185.21740355 -.00000074  00000+0  16688-3 0  9991
2 38044  52.0126 276.6260 0000535 105.7516 271.4525 12.62252830671869
GLOBALSTAR M086         
1 38045U 11080F   26185.55474844 -.00000060  00000+0  24320-3 0  9993
2 38045  51.9898 275.5000 0001654  96.0259 277.4929 12.62287673671859
GLOBALSTAR M097         
1 39072U 13005A   26185.74178698 -.00000112  00000+0 -44981-4 0  9997
2 39072  52.0014 189.8984 0000199  41.7022 318.3860 12.62271324619125
GLOBALSTAR M093         
1 39073U 13005B   26185.71497516 -.00000111  00000+0 -42288-4 0  9995
2 39073  52.0074 183.3328 0000393  32.4879 327.6012 12.62266181619077
GLOBALSTAR M094         
1 39074U 13005C   26185.47727601 -.00000084  00000+0  10856-3 0  9993
2 39074  51.9958  98.1558 0000821  42.4626 317.6304 12.62268518620657
GLOBALSTAR M096         
1 39075U 13005D   26185.88672094 -.00000102  00000+0  97224-5 0  9991
2 39075  52.0049 145.7236 0000492  22.9871 337.1018 12.62265597619620
GLOBALSTAR M078         
1 39076U 13005E   26185.85981299 -.00000095  00000+0  49862-4 0  9994
2 39076  51.9851 229.7937 0000611 305.3782  54.7028 12.62260005618242
GLOBALSTAR M095         
1 39077U 13005F   26185.80733168 -.00000099  00000+0  27670-4 0  9997
2 39077  52.0059 227.5822 0000171   0.2575 359.8291 12.62263922618091
GLOBALSTAR M087         
1 52888U 22064A   26185.89967316 -.00000104  00000+0 -31952-6 0  9998
2 52888  52.0011   8.5282 0000944  70.3784 289.7185 12.62269290193375
