OBJECT_NAME,OBJECT_ID,EPOCH,MEAN_MOTION,ECCENTRICITY,INCLINATION,RA_OF_ASC_NODE,ARG_OF_PERICENTER,MEAN_ANOMALY,EPHEMERIS_TYPE,CLASSIFICATION_TYPE,NORAD_CAT_ID,ELEMENT_SET_NO,REV_AT_EPOCH,BSTAR,MEAN_MOTION_DOT,MEAN_MOTION_DDOT
GLOBALSTAR M069,2007-020C,2026-07-04T18:44:14.157024,12.23471961,.00019208,51.9996,202.3296,187.0422,343.6840,0,U,31573,999,88095,.2191792E-3,-.69E-6,0
GLOBALSTAR M072,2007-020D,2026-07-04T15:49:29.244000,11.91658599,.00015926,51.9942,53.7304,13.6714,19.8118,0,U,31574,999,87706,.23287215E-3,-.67E-6,0
GLOBALSTAR M066,2007-048C,2026-07-04T12:51:37.334592,12.30387894,.00057133,51.9612,8.1104,79.8467,314.3397,0,U,32265,999,86236,-.18207073E-4,-.97E-6,0
GLOBALSTAR M079,2010-054A,2026-07-04T22:41:36.531744,12.62266441,.00010471,52.0046,54.6115,60.4545,328.3746,0,U,37188,999,72479,.80561413E-4,-.89E-6,0
GLOBALSTAR M074,2010-054B,2026-07-04T21:20:37.876992,12.62261910,.00008168,52.0027,54.0450,77.0506,296.2515,0,U,37189,999,72539,.66078674E-4,-.92E-6,0
GLOBALSTAR M076,2010-054C,2026-07-04T16:23:28.080096,12.62262053,.00010378,52.0038,54.8780,73.0570,321.9452,0,U,37190,999,72508,.76610815E-4,-.9E-6,0
GLOBALSTAR M077,2010-054D,2026-07-04T08:33:03.404160,11.67547948,.00024411,51.9935,135.7168,203.9150,325.8394,0,U,37191,999,72314,.16519171E-3,-.69E-6,0
GLOBALSTAR M075,2010-054E,2026-07-04T18:30:48.892608,12.62267648,.00005683,51.9942,96.6525,48.6624,328.6879,0,U,37192,999,72416,.17751524E-3,-.72E-6,0
GLOBALSTAR M073,2010-054F,2026-07-04T18:30:01.537632,12.62266821,.00011129,52.0073,10.7684,80.9165,292.3319,0,U,37193,999,72615,.33232932E-4,-.98E-6,0
GLOBALSTAR M083,2011-033A,2026-07-04T15:00:24.027840,12.62263814,.00009254,51.9877,319.4166,93.4041,279.3564,0,U,37739,999,69515,.121692E-3,-.82E-6,0
GLOBALSTAR M088,2011-033B,2026-07-04T20:54:58.617792,12.62269264,.00002811,52.0191,225.1385,152.9321,17.8646,0,U,37740,999,69072,.3682861E-4,-.97E-6,0
GLOBALSTAR M091,2011-033C,2026-07-04T17:25:51.877632,12.62264129,.0000151,51.9966,188.5184,355.1760,176.1624,0,U,37741,999,69149,-.68879566E-4,-.116E-5,0
GLOBALSTAR M085,2011-033D,2026-07-04T22:07:00.091776,12.62264211,.00005345,52.0109,139.2306,17.4911,21.4946,0,U,37742,999,69203,.58064812E-4,-.93E-6,0
GLOBALSTAR M081,2011-033E,2026-07-04T20:44:09.498048,12.62265310,.00004314,51.9940,141.8218,41.1943,336.0095,0,U,37743,999,69217,.41550527E-4,-.96E-6,0
GLOBALSTAR M089,2011-033F,2026-07-04T17:55:56.711424,12.62267514,.00005883,51.9929,96.3334,80.6750,306.4607,0,U,37744,999,69300,.13762981E-3,-.79E-6,0
GLOBALSTAR M084,2011-080A,2026-07-04T16:16:48.444672,12.62267759,.00010375,52.0027,324.0335,114.2678,259.7855,0,U,38040,999,67097,.93908709E-4,-.87E-6,0
GLOBALSTAR M080,2011-080B,2026-07-04T15:35:30.382944,12.62265472,.00004108,52.0081,325.8451,82.4452,291.2697,0,U,38041,999,67109,.51038687E-4,-.95E-6,0
GLOBALSTAR M082,2011-080C,2026-07-04T16:45:23.222016,12.62263928,.00003311,52.0081,281.2010,113.3798,50.7180,0,U,38042,999,67180,.13367264E-3,-.8E-6,0
GLOBALSTAR M092,2011-080D,2026-07-04T21:44:18.084768,12.62267509,.0000848,52.0099,10.9662,88.9039,58.1566,0,U,38043,999,67028,.13060156E-3,-.8E-6,0
GLOBALSTAR M090,2011-080E,2026-07-04T05:13:03.666720,12.62252830,.00005358,52.0126,276.6260,105.7516,271.4525,0,U,38044,999,67186,.16687548E-3,-.74E-6,0
GLOBALSTAR M086,2011-080F,2026-07-04T13:18:50.265216,12.62287673,.00016543,51.9898,275.5000,96.0259,277.4929,0,U,38045,999,67185,.24319981E-3,-.6E-6,0
GLOBALSTAR M097,2013-005A,2026-07-04T17:48:10.395072,12.62271324,.00001997,52.0014,189.8984,41.7022,318.3860,0,U,39072,999,61912,-.44980935E-4,-.112E-5,0
GLOBALSTAR M093,2013-005B,2026-07-04T17:09:33.853824,12.62266181,.00003937,52.0074,183.3328,32.4879,327.6012,0,U,39073,999,61907,-.42287503E-4,-.111E-5,0
GLOBALSTAR M094,2013-005C,2026-07-04T11:27:16.647264,12.62268518,.00008211,51.9958,98.1558,42.4626,317.6304,0,U,39074,999,62065,.10855913E-3,-.84E-6,0
GLOBALSTAR M096,2013-005D,2026-07-04T21:16:52.689216,12.62265597,.00004924,52.0049,145.7236,22.9871,337.1018,0,U,39075,999,61962,.9722409E-5,-.102E-5,0
GLOBALSTAR M078,2013-005E,2026-07-04T20:38:07.842336,12.62260005,.00006112,51.9851,229.7937,305.3782,54.7028,0,U,39076,999,61824,.49861935E-4,-.95E-6,0
GLOBALSTAR M095,2013-005F,2026-07-04T19:22:33.457152,12.62263922,.00001715,52.0059,227.5822,0.2575,359.8291,0,U,39077,999,61809,.27670098E-4,-.99E-6,0
GLOBALSTAR M087,2022-064A,2026-07-04T21:35:31.761024,12.62269290,.00009449,52.0011,8.5282,70.3784,289.7185,0,U,52888,999,19337,-.319517E-6,-.104E-5,0
